      2.10          N: GNSS NAV DATA                        RINEX VERSION / TYPE
fic2rin                                 04/25/2020 00:17:34 PGM / RUN BY / DATE
                                                            END OF HEADER
 3 20  4 24 10  0  0.0-1.550419256091e-04-1.136868377216e-11 0.000000000000e+00
    2.200000000000e+01 2.253125000000e+01 4.931633993780e-09 5.397934845196e-01
    9.723007678986e-07 2.751729683951e-03 4.807487130165e-06 5.153562051773e+03
    4.680000000000e+05 2.793967723846e-08-1.543999030831e+00 2.607703208923e-08
    9.649435724244e-01 2.923750000000e+02 6.897473011665e-01-8.300345742717e-09
    2.703684047864e-10 1.000000000000e+00 2.102000000000e+03 0.000000000000e+00
    2.400000000000e+00 0.000000000000e+00 1.862645149231e-09 2.200000000000e+01
    4.608000000000e+05 4.000000000000e+00
 2 20  4 24 10  0  0.0-4.447819665074e-04-6.366462912410e-12 0.000000000000e+00
    9.000000000000e+01-3.340625000000e+01 4.131957826914e-09 1.835267966095e+00
   -1.790001988411e-06 1.972168427892e-02 1.209788024426e-05 5.153684436798e+03
    4.680000000000e+05 2.030283212662e-07-2.660327232782e+00-4.339963197708e-07
    9.590144488355e-01 1.404375000000e+02-1.634680174556e+00-7.624603309618e-09
    4.793056792911e-10 1.000000000000e+00 2.102000000000e+03 0.000000000000e+00
    2.400000000000e+00 0.000000000000e+00-1.769512891769e-08 9.000000000000e+01
    4.608000000000e+05 4.000000000000e+00
29 20  4 24 10  0  0.0-8.856505155563e-05-8.981260180008e-12 0.000000000000e+00
    2.600000000000e+01-1.155937500000e+02 3.845874481823e-09-2.169782020816e+00
   -6.003305315971e-06 1.356973662041e-03 7.024034857750e-06 5.153597932816e+03
    4.680000000000e+05 7.636845111847e-08 2.713375957308e+00 3.166496753693e-08
    9.858413059846e-01 2.577187500000e+02 1.883176394404e+00-7.839255107870e-09
   -3.753727786401e-10 1.000000000000e+00 2.102000000000e+03 0.000000000000e+00
    2.400000000000e+00 0.000000000000e+00-1.024454832077e-08 2.600000000000e+01
    4.608000000000e+05 4.000000000000e+00
16 20  4 24 10  0  0.0-1.502814702690e-04-4.433786671143e-12 0.000000000000e+00
    2.000000000000e+01 2.312500000000e+01 4.274463762859e-09-1.685599752018e+00
    1.242384314537e-06 1.152259146329e-02 1.601874828339e-06 5.153749870300e+03
    4.680000000000e+05 1.229345798492e-07 1.686064645440e+00-1.154839992523e-07
    9.786102423589e-01 3.572187500000e+02 6.279410647916e-01-8.144982128342e-09
    9.928985010651e-11 1.000000000000e+00 2.102000000000e+03 0.000000000000e+00
    2.400000000000e+00 0.000000000000e+00-1.071020960808e-08 2.000000000000e+01
    4.608000000000e+05 4.000000000000e+00
 9 20  4 24 10  0  0.0-2.041351981461e-04-7.617018127348e-12 0.000000000000e+00
    2.900000000000e+01-3.378125000000e+01 4.923776523627e-09-2.214192063404e+00
   -1.691281795502e-06 1.567561062984e-03 8.674338459969e-06 5.153746820450e+03
    4.680000000000e+05 0.000000000000e+00-5.125359896384e-01 4.842877388000e-08
    9.528204683170e-01 2.103750000000e+02 1.812556085379e+00-8.092122783681e-09
   -4.796628370253e-10 1.000000000000e+00 2.102000000000e+03 0.000000000000e+00
    2.400000000000e+00 0.000000000000e+00 1.396983861923e-09 2.900000000000e+01
    4.608000000000e+05 4.000000000000e+00
 6 20  4 24 10  0  0.0-2.589086070657e-04-7.389644451905e-12 0.000000000000e+00
    2.400000000000e+01-1.200000000000e+01 3.711940331500e-09 1.712256578588e+00
   -5.327165126801e-07 1.982679357752e-03 1.184642314911e-05 5.153530061722e+03
    4.680000000000e+05 4.470348358154e-08-2.592985546999e+00 2.607703208923e-08
    9.795496903136e-01 1.593750000000e+02-1.071484592868e+00-7.539956926614e-09
    5.085926134952e-10 1.000000000000e+00 2.102000000000e+03 0.000000000000e+00
    2.400000000000e+00 0.000000000000e+00 4.656612873077e-09 2.400000000000e+01
    4.608000000000e+05 4.000000000000e+00
 5 20  4 24 10  0  0.0-1.142453402281e-05-6.821210263297e-13 0.000000000000e+00
    7.200000000000e+01 2.143750000000e+01 5.158071997260e-09-1.771828473848e+00
    9.872019290924e-07 5.817631026730e-03 4.602596163750e-06 5.153635046005e+03
    4.680000000000e+05 8.381903171539e-08-1.575447543165e+00-5.401670932770e-08
    9.518518687938e-01 2.796250000000e+02 7.861612053755e-01-8.306774581933e-09
    4.100170788571e-10 1.000000000000e+00 2.102000000000e+03 0.000000000000e+00
    2.400000000000e+00 0.000000000000e+00-1.117587089539e-08 7.200000000000e+01
    4.608000000000e+05 4.000000000000e+00
 8 20  4 24 10  0  0.0-3.169896081090e-05-1.250555214938e-12 0.000000000000e+00
    1.040000000000e+02-1.063437500000e+02 4.142672558940e-09-2.408182476226e+00
   -5.494803190231e-06 5.344342440367e-03 6.608664989471e-06 5.153661209106e+03
    4.680000000000e+05-6.519258022308e-08 2.629487164169e+00-1.862645149231e-08
    9.698855437631e-01 2.588750000000e+02-9.880599909503e-02-8.002833350132e-09
   -2.767972440020e-10 1.000000000000e+00 2.102000000000e+03 0.000000000000e+00
    3.400000000000e+00 0.000000000000e+00 5.122274160385e-09 1.040000000000e+02
    4.608000000000e+05 4.000000000000e+00
31 20  4 24 10  0  0.0-3.806315362453e-05-2.501110429876e-12 0.000000000000e+00
    2.100000000000e+01 8.125000000000e+01 4.488044087908e-09 4.441312027502e-01
    4.326924681664e-06 9.515131358057e-03 1.009181141853e-05 5.153567008972e+03
    4.680000000000e+05 1.396983861923e-07 5.766580809237e-01 7.264316082001e-08
    9.582131895855e-01 1.799375000000e+02 1.276926127156e-01-8.057121325729e-09
   -1.928651764659e-11 1.000000000000e+00 2.102000000000e+03 0.000000000000e+00
    2.400000000000e+00 0.000000000000e+00-1.350417733192e-08 2.100000000000e+01
    4.608000000000e+05 4.000000000000e+00
22 20  4 24 10  0  0.0-7.841167971492e-04 7.958078640513e-13 0.000000000000e+00
    3.100000000000e+01 3.412500000000e+01 5.647378093108e-09 2.838963739584e+00
    1.521781086922e-06 7.225449313410e-03 4.589557647705e-06 5.153513147354e+03
    4.680000000000e+05 1.788139343262e-07-1.629272023891e+00 8.940696716309e-08
    9.299261222185e-01 2.723750000000e+02-1.179569151344e+00-8.570356989769e-09
    3.550147877909e-10 1.000000000000e+00 2.102000000000e+03 0.000000000000e+00
    2.400000000000e+00 0.000000000000e+00-1.816079020500e-08 3.100000000000e+01
    4.608000000000e+05 4.000000000000e+00
21 20  4 24 10  0  0.0-1.007970422506e-05 4.888534022029e-12 0.000000000000e+00
    2.100000000000e+01-2.565625000000e+01 4.508044921023e-09-2.355569888541e-01
   -1.423060894012e-06 2.466841996647e-02 1.130998134613e-05 5.153522371292e+03
    4.680000000000e+05-4.619359970093e-07-2.657959336024e+00-6.146728992462e-08
    9.529492489956e-01 1.655937500000e+02-1.336256835501e+00-8.283559329210e-09
    4.900204113170e-10 1.000000000000e+00 2.102000000000e+03 0.000000000000e+00
    2.400000000000e+00 0.000000000000e+00-1.024454832077e-08 2.100000000000e+01
    4.608000000000e+05 4.000000000000e+00
15 20  4 24 10  0  0.0-2.358150668442e-04 2.614797267597e-12 0.000000000000e+00
    1.800000000000e+01-4.681250000000e+01 5.515586889190e-09 2.874467422797e+00
   -2.525746822357e-06 1.222585921641e-02 7.653608918190e-06 5.153667181015e+03
    4.680000000000e+05 5.587935447693e-09-6.011479556996e-01-1.881271600723e-07
    9.282704837002e-01 2.144375000000e+02 8.739068503681e-01-8.236057350562e-09
   -5.264505002050e-10 1.000000000000e+00 2.102000000000e+03 0.000000000000e+00
    2.400000000000e+00 0.000000000000e+00-1.117587089539e-08 1.800000000000e+01
    4.608000000000e+05 4.000000000000e+00
14 20  4 24 10  0  0.0-1.751258969307e-05 2.501110429876e-12 0.000000000000e+00
    2.800000000000e+01-4.078125000000e+01 4.611263506206e-09-2.797551706218e+00
   -2.088025212288e-06 1.131491223350e-02 9.119510650635e-06 5.153637580872e+03
    4.680000000000e+05 2.142041921616e-07-4.169355307870e-01-6.891787052155e-08
    9.606747365074e-01 2.004062500000e+02-1.921845595349e+00-7.853184259503e-09
   -4.760912596834e-10 1.000000000000e+00 2.102000000000e+03 0.000000000000e+00
    2.400000000000e+00 0.000000000000e+00-9.778887033463e-09 2.800000000000e+01
    4.608000000000e+05 4.000000000000e+00
25 20  4 24 10  0  0.0-9.881332516670e-07 2.614797267597e-12 0.000000000000e+00
    2.000000000000e+01 5.015625000000e+01 4.791271004240e-09-7.539096095328e-02
    2.665445208549e-06 9.267135756090e-03 2.032145857811e-06 5.153558313370e+03
    4.680000000000e+05-3.539025783539e-08 1.598617254334e+00 1.192092895508e-07
    9.657247926225e-01 3.407812500000e+02 9.271484372368e-01-8.626073596304e-09
    6.357407668690e-11 1.000000000000e+00 2.102000000000e+03 0.000000000000e+00
    2.400000000000e+00 0.000000000000e+00 5.587935447693e-09 2.000000000000e+01
    4.608000000000e+05 4.000000000000e+00
17 20  4 24 10  0  0.0 2.539297565818e-04 6.252776074689e-12 0.000000000000e+00
    4.500000000000e+01-1.194687500000e+02 3.727298114070e-09-2.642699804312e+00
   -6.051734089851e-06 1.323565351777e-02 7.627531886101e-06 5.153690868378e+03
    4.680000000000e+05 1.378357410431e-07 2.701678904685e+00 5.587935447693e-09
    9.841905375206e-01 2.432812500000e+02-1.643959491729e+00-7.550671658639e-09
   -3.128701751558e-10 1.000000000000e+00 2.102000000000e+03 0.000000000000e+00
    2.400000000000e+00 0.000000000000e+00-1.117587089539e-08 4.500000000000e+01
    4.608000000000e+05 4.000000000000e+00
20 20  4 24 10  0  0.0 5.277819000185e-04 0.000000000000e+00 0.000000000000e+00
    3.900000000000e+01 3.000000000000e+01 5.542730876989e-09 1.036434035363e+00
    1.559033989906e-06 5.054328241386e-03 5.293637514114e-06 5.153632984161e+03
    4.680000000000e+05 1.061707735062e-07-1.676863135029e+00-5.587935447693e-09
    9.332436415265e-01 2.625937500000e+02 2.647599163772e+00-8.528212377134e-09
    4.332323315798e-10 1.000000000000e+00 2.102000000000e+03 0.000000000000e+00
    2.400000000000e+00 0.000000000000e+00-8.847564458847e-09 3.900000000000e+01
    4.608000000000e+05 4.000000000000e+00
